NORAD_CAT_ID,OBJECT_NAME,OBJECT_TYPE,EPOCH,MEAN_MOTION,ECCENTRICITY,INCLINATION,RA_OF_ASC_NODE,ARG_OF_PERICENTER,MEAN_ANOMALY,BSTAR,MEAN_MOTION_DOT,MEAN_MOTION_DDOT,TLE_LINE0,TLE_LINE1,TLE_LINE2,SEMIMAJOR_AXIS,PERIOD,APOGEE,PERIGEE,DECAYED
55282.0,STARLINK-5330,PAYLOAD,2023-06-06 04:13:12,14.98330739,0.0002837,70.001,64.6106,270.5311,89.5523,-1.3978e-05,-2.6e-06,0.0,0 STARLINK-5330,1 55282U 23010P   23157.17584121 -.00000260  00000-0 -13978-4 0  9997,2 55282  70.0010  64.6106 0002837 270.5311  89.5523 14.98330739 21860,6950.191,96.107,574.027,570.084,0.0
55282.0,STARLINK-5330,PAYLOAD,2023-06-06 18:38:25,14.98331829,0.000285,70.001,63.0963,269.3435,90.7397,-3.6647e-05,-5.3e-06,0.0,0 STARLINK-5330,1 55282U 23010P   23157.77668070 -.00000530  00000-0 -36647-4 0  9997,2 55282  70.0010  63.0963 0002850 269.3435  90.7397 14.98331829 21956,6950.187,96.107,574.033,570.071,0.0
55282.0,STARLINK-5330,PAYLOAD,2023-06-07 04:15:13,14.98335696,0.0002877,70.001,62.0861,270.6035,89.4794,8.9968e-06,1.4e-07,0.0,0 STARLINK-5330,1 55282U 23010P   23158.17723622  .00000014  00000-0  89968-5 0  9997,2 55282  70.0010  62.0861 0002877 270.6035  89.4794 14.98335696 21718,6950.175,96.107,574.04,570.041,0.0
55282.0,STARLINK-5330,PAYLOAD,2023-06-07 18:40:26,14.98326404,0.0002886,70.0009,60.571,273.6615,86.4214,-8.4995e-06,-1.94e-06,0.0,0 STARLINK-5330,1 55282U 23010P   23158.77808268 -.00000194  00000-0 -84995-5 0  9999,2 55282  70.0009  60.5710 0002886 273.6615  86.4214 14.98326404 21800,6950.204,96.107,574.075,570.063,0.0
55282.0,STARLINK-5330,PAYLOAD,2023-06-07 21:52:42,14.98325902,0.0002898,70.0009,60.2345,273.0961,86.9866,-1.4776e-05,-2.69e-06,0.0,0 STARLINK-5330,1 55282U 23010P   23158.91160338 -.00000269  00000-0 -14776-4 0  9996,2 55282  70.0009  60.2345 0002898 273.0961  86.9866 14.98325902 22128,6950.206,96.107,574.085,570.056,0.0
55282.0,STARLINK-5330,PAYLOAD,2023-06-08 04:17:14,14.98328624,0.0002876,70.001,59.5614,271.9852,88.0978,1.4674e-05,8.2e-07,0.0,0 STARLINK-5330,1 55282U 23010P   23159.17864122  .00000082  00000-0  14674-4 0  9995,2 55282  70.0010  59.5614 0002876 271.9852  88.0978 14.98328624 22167,6950.197,96.107,574.061,570.063,0.0
55282.0,STARLINK-5330,PAYLOAD,2023-06-09 02:43:06,14.98336559,0.0002884,70.0009,57.2044,270.5003,89.5825,5.4437e-05,5.57e-06,0.0,0 STARLINK-5330,1 55282U 23010P   23160.11327377  .00000557  00000-0  54437-4 0  9995,2 55282  70.0009  57.2044 0002884 270.5003  89.5825 14.98336559 22005,6950.173,96.107,574.042,570.033,0.0
55282.0,STARLINK-5330,PAYLOAD,2023-06-09 17:08:20,14.98325655,0.0002773,70.0014,55.6906,270.6233,89.4609,1.0278e-05,3e-07,0.0,0 STARLINK-5330,1 55282U 23010P   23160.71412157  .00000030  00000-0  10278-4 0  9993,2 55282  70.0014  55.6906 0002773 270.6233  89.4609 14.98325655 22096,6950.206,96.107,573.999,570.144,0.0
55282.0,STARLINK-5330,PAYLOAD,2023-06-10 10:45:48,14.98329566,0.0003108,70.0009,53.8384,270.6317,89.4486,-1.2595e-05,-2.43e-06,0.0,0 STARLINK-5330,1 55282U 23010P   23161.44848016 -.00000243  00000-0 -12595-4 0  9993,2 55282  70.0009  53.8384 0003108 270.6317  89.4486 14.98329566 22500,6950.194,96.107,574.219,569.899,0.0
55282.0,STARLINK-5330,PAYLOAD,2023-06-10 15:34:12,14.98330529,0.0003042,70.0009,53.3333,269.0745,91.0065,-1.6285e-05,-2.87e-06,0.0,0 STARLINK-5330,1 55282U 23010P   23161.64875964 -.00000287  00000-0 -16285-4 0  9995,2 55282  70.0009  53.3333 0003042 269.0745  91.0065 14.98330529 22539,6950.191,96.107,574.171,569.942,0.0
55282.0,STARLINK-5330,PAYLOAD,2023-06-11 02:47:09,14.98333413,0.0003041,70.0012,52.1552,269.7233,90.3578,1.2686e-05,5.8e-07,0.0,0 STARLINK-5330,1 55282U 23010P   23162.11607662  .00000058  00000-0  12686-4 0  9991,2 55282  70.0012  52.1552 0003041 269.7233  90.3578 14.98333413 22302,6950.182,96.107,574.161,569.934,0.0
55282.0,STARLINK-5330,PAYLOAD,2023-06-11 04:23:16,14.98334925,0.0003072,70.001,51.9869,269.634,90.4467,2.7152e-05,2.31e-06,0.0,0 STARLINK-5330,1 55282U 23010P   23162.18283513  .00000231  00000-0  27152-4 0  9990,2 55282  70.0010  51.9869 0003072 269.6340  90.4467 14.98334925 22611,6950.178,96.107,574.178,569.908,0.0
55282.0,STARLINK-5330,PAYLOAD,2023-06-12 09:13:42,14.98332396,0.0003103,70.001,48.9572,269.2707,90.8097,-1.7004e-06,-1.13e-06,0.0,0 STARLINK-5330,1 55282U 23010P   23163.38451604 -.00000113  00000-0 -17004-5 0  9998,2 55282  70.0010  48.9572 0003103 269.2707  90.8097 14.98332396 22798,6950.185,96.107,574.207,569.894,0.0
55282.0,STARLINK-5330,PAYLOAD,2023-06-13 02:51:11,14.98328288,0.0002977,70.0013,47.106,269.6179,90.4638,7.9976e-06,2e-08,0.0,0 STARLINK-5330,1 55282U 23010P   23164.11887888  .00000002  00000-0  79976-5 0  9998,2 55282  70.0013  47.1060 0002977 269.6179  90.4638 14.98328288 22904,6950.198,96.107,574.132,569.994,0.0
55282.0,STARLINK-5330,PAYLOAD,2023-06-13 15:40:15,14.98329157,0.0003034,70.0009,45.7592,269.5629,90.5182,2.755e-08,-9.3e-07,0.0,0 STARLINK-5330,1 55282U 23010P   23164.65295835 -.00000093  00000-0  27550-7 0  9996,2 55282  70.0009  45.7592 0003034 269.5629  90.5182 14.98329157 22683,6950.195,96.107,574.169,569.952,0.0
55282.0,STARLINK-5330,PAYLOAD,2023-06-13 22:04:47,14.98331696,0.0003005,70.0012,45.0868,267.4914,92.5901,-1.315e-05,-2.5e-06,0.0,0 STARLINK-5330,1 55282U 23010P   23164.91999687 -.00000250  00000-0 -13150-4 0  9995,2 55282  70.0012  45.0868 0003005 267.4914  92.5901 14.98331696 23029,6950.188,96.107,574.141,569.964,0.0
55282.0,STARLINK-5330,PAYLOAD,2023-06-14 02:53:11,14.98333293,0.0003042,70.0008,44.5807,268.2841,91.7969,-6.0042e-07,-1e-06,0.0,0 STARLINK-5330,1 55282U 23010P   23165.12027518 -.00000100  00000-0 -60042-6 0  9992,2 55282  70.0008  44.5807 0003042 268.2841  91.7969 14.98333293 23053,6950.183,96.107,574.162,569.933,0.0
55282.0,STARLINK-5330,PAYLOAD,2023-06-14 15:42:16,14.98327203,0.0003069,70.001,43.2334,266.0518,94.029,7.2103e-05,7.67e-06,0.0,0 STARLINK-5330,1 55282U 23010P   23165.65435603  .00000767  00000-0  72103-4 0  9994,2 55282  70.0010  43.2334 0003069 266.0518  94.0290 14.98327203 22835,6950.202,96.107,574.2,569.934,0.0
55282.0,STARLINK-5330,PAYLOAD,2023-06-15 01:19:04,14.98329328,0.0003017,70.0009,42.2238,265.9452,94.1363,3.4729e-05,3.21e-06,0.0,0 STARLINK-5330,1 55282U 23010P   23166.05491618  .00000321  00000-0  34729-4 0  9995,2 55282  70.0009  42.2238 0003017 265.9452  94.1363 14.98329328 23195,6950.195,96.107,574.157,569.963,0.0
55282.0,STARLINK-5330,PAYLOAD,2023-06-15 17:20:25,14.98328376,0.000302,70.0007,40.5405,266.0255,94.0559,-1.5009e-05,-2.72e-06,0.0,0 STARLINK-5330,1 55282U 23010P   23166.72251857 -.00000272  00000-0 -15009-4 0  9995,2 55282  70.0007  40.5405 0003020 266.0255  94.0559 14.98328376 22992,6950.198,96.107,574.162,569.964,0.0
55282.0,STARLINK-5330,PAYLOAD,2023-06-16 09:21:45,14.9833322,0.0003089,70.0005,38.8576,267.8708,92.2097,1.6583e-05,1.05e-06,0.0,0 STARLINK-5330,1 55282U 23010P   23167.39011423  .00000105  00000-0  16583-4 0  9993,2 55282  70.0005  38.8576 0003089 267.8708  92.2097 14.98333220 23392,6950.183,96.107,574.195,569.901,0.0
55282.0,STARLINK-5330,PAYLOAD,2023-06-16 15:46:17,14.98334925,0.0003147,70.0003,38.1848,267.9668,92.1131,5.0532e-05,5.1e-06,0.0,0 STARLINK-5330,1 55282U 23010P   23167.65715140  .00000510  00000-0  50532-4 0  9991,2 55282  70.0003  38.1848 0003147 267.9668  92.1131 14.98334925 23139,6950.178,96.107,574.23,569.855,0.0
55282.0,STARLINK-5330,PAYLOAD,2023-06-16 17:22:25,14.98336419,0.0003121,70.0004,38.0163,267.8605,92.2197,6.5399e-05,6.88e-06,0.0,0 STARLINK-5330,1 55282U 23010P   23167.72390984  .00000688  00000-0  65399-4 0  9997,2 55282  70.0004  38.0163 0003121 267.8605  92.2197 14.98336419 23448,6950.173,96.107,574.207,569.869,0.0
55282.0,STARLINK-5330,PAYLOAD,2023-06-17 01:23:05,14.98341475,0.0003096,70.0003,37.1744,267.8915,92.189,0.0001127,1.252e-05,0.0,0 STARLINK-5330,1 55282U 23010P   23168.05770360  .00001252  00000-0  11270-3 0  9990,2 55282  70.0003  37.1744 0003096 267.8915  92.1890 14.98341475 23196,6950.157,96.106,574.174,569.871,0.0
55282.0,STARLINK-5330,PAYLOAD,2023-06-17 02:59:13,14.98342405,0.0003092,70.0003,37.0062,267.8593,92.2211,0.00012183,1.361e-05,0.0,0 STARLINK-5330,1 55282U 23010P   23168.12446231  .00001361  00000-0  12183-3 0  9990,2 55282  70.0003  37.0062 0003092 267.8593  92.2211 14.98342405 23503,6950.155,96.106,574.169,569.871,0.0
55282.0,STARLINK-5330,PAYLOAD,2023-06-17 15:48:19,14.98322066,0.0003178,70.0003,35.6591,268.8528,91.2267,-8.7347e-05,-1.135e-05,0.0,0 STARLINK-5330,1 55282U 23010P   23168.65856097 -.00001135  00000-0 -87347-4 0  9999,2 55282  70.0003  35.6591 0003178 268.8528  91.2267 14.98322066 23284,6950.217,96.108,574.291,569.874,0.0
55282.0,STARLINK-5330,PAYLOAD,2023-06-17 22:12:52,14.98320881,0.0002773,70.0003,34.9858,267.542,92.5422,-0.00010234,-1.314e-05,0.0,0 STARLINK-5330,1 55282U 23010P   23168.92560325 -.00001314  00000-0 -10234-3 0  9994,2 55282  70.0003  34.9858 0002773 267.5420  92.5422 14.98320881 23627,6950.221,96.108,574.013,570.159,0.0
55282.0,STARLINK-5330,PAYLOAD,2023-06-18 07:49:40,14.98323749,0.0003172,70.0002,33.976,270.629,89.4506,-7.2729e-05,-9.61e-06,0.0,0 STARLINK-5330,1 55282U 23010P   23169.32616277 -.00000961  00000-0 -72729-4 0  9992,2 55282  70.0002  33.9760 0003172 270.6290  89.4506 14.98323749 23681,6950.212,96.107,574.282,569.873,0.0
55282.0,STARLINK-5330,PAYLOAD,2023-06-18 14:14:12,14.98325842,0.0003126,70.0001,33.3027,270.2057,89.8744,-7.4345e-05,-9.8e-06,0.0,0 STARLINK-5330,1 55282U 23010P   23169.59320232 -.00000980  00000-0 -74345-4 0  9991,2 55282  70.0001  33.3027 0003126 270.2057  89.8744 14.98325842 23725,6950.206,96.107,574.243,569.898,0.0
55282.0,STARLINK-5330,PAYLOAD,2023-06-19 01:27:08,14.98333569,0.0003148,70.0001,32.1247,270.2463,89.8336,-3.416e-05,-5.01e-06,0.0,0 STARLINK-5330,1 55282U 23010P   23170.06051643 -.00000501  00000-0 -34160-4 0  9992,2 55282  70.0001  32.1247 0003148 270.2463  89.8336 14.98333569 23497,6950.182,96.107,574.235,569.859,0.0
